[{"OBJECT_NAME":"STARLINK-34560","OBJECT_ID":"2025-142E","EPOCH":"2026-03-09T22:00:01.999584","MEAN_MOTION":14.98327654,"ECCENTRICITY":0.00031957,"INCLINATION":70.0006,"RA_OF_ASC_NODE":314.0372,"ARG_OF_PERICENTER":276.5089,"MEAN_ANOMALY":320.4654,"EPHEMERIS_TYPE":0,"CLASSIFICATION_TYPE":"U","NORAD_CAT_ID":64700,"ELEMENT_SET_NO":999,"REV_AT_EPOCH":575,"BSTAR":-0.00073575436,"MEAN_MOTION_DOT":-8.86e-5,"MEAN_MOTION_DDOT":0},{"OBJECT_NAME":"FREGAT DEB","OBJECT_ID":"2011-037AT","EPOCH":"2026-02-27T07:33:41.728320","MEAN_MOTION":13.26314688,"ECCENTRICITY":0.10195687,"INCLINATION":51.565,"RA_OF_ASC_NODE":116.2128,"ARG_OF_PERICENTER":148.3059,"MEAN_ANOMALY":218.3568,"EPHEMERIS_TYPE":0,"CLASSIFICATION_TYPE":"U","NORAD_CAT_ID":45651,"ELEMENT_SET_NO":999,"REV_AT_EPOCH":25946,"BSTAR":0.0036558398,"MEAN_MOTION_DOT":0.00039113,"MEAN_MOTION_DDOT":0}]
